STARLINK-30812          
1 58168U 23166U   26068.69537400  .00001171  00000+0  51683-4 0  9998
2 58168  53.1599 219.3426 0001554  81.6762 278.4415 15.30182889133030
TEVEL2-5                
1 63214U 25052E   26068.96660006  .00021339  00000+0  71765-3 0  9991
2 63214  97.4013 325.3677 0004700  95.3936 264.7842 15.30817434 54919
