[{"OBJECT_NAME":"STARLINK-30812","OBJECT_ID":"2023-166U","EPOCH":"2026-03-09T16:41:20.313600","MEAN_MOTION":15.30182889,"ECCENTRICITY":0.00015543,"INCLINATION":53.1599,"RA_OF_ASC_NODE":219.3426,"ARG_OF_PERICENTER":81.6762,"MEAN_ANOMALY":278.4415,"EPHEMERIS_TYPE":0,"CLASSIFICATION_TYPE":"U","NORAD_CAT_ID":58168,"ELEMENT_SET_NO":999,"REV_AT_EPOCH":13303,"BSTAR":5.1682527e-5,"MEAN_MOTION_DOT":1.171e-5,"MEAN_MOTION_DDOT":0},{"OBJECT_NAME":"TEVEL2-5","OBJECT_ID":"2025-052E","EPOCH":"2026-03-09T23:11:54.246048","MEAN_MOTION":15.30817434,"ECCENTRICITY":0.00047002,"INCLINATION":97.4013,"RA_OF_ASC_NODE":325.3677,"ARG_OF_PERICENTER":95.3936,"MEAN_ANOMALY":264.7842,"EPHEMERIS_TYPE":0,"CLASSIFICATION_TYPE":"U","NORAD_CAT_ID":63214,"ELEMENT_SET_NO":999,"REV_AT_EPOCH":5491,"BSTAR":0.00071764727,"MEAN_MOTION_DOT":0.00021339,"MEAN_MOTION_DDOT":0}]
